FLOCK 4BE-36            
1 60486U 24149U   26068.70656674  .00023179  00000+0  59803-3 0  9996
2 60486  97.3778 152.1823 0002918 251.8087 108.2841 15.39167190 87034
FLOCK 4BE-13            
1 60512U 24149AW  26068.70630060  .00020656  00000+0  53908-3 0  9994
2 60512  97.3753 152.2878 0003445 264.4155  95.6697 15.38835504 87050
