[{"OBJECT_NAME":"FLOCK 4BE-36","OBJECT_ID":"2024-149U","EPOCH":"2026-03-09T16:57:27.366336","MEAN_MOTION":15.3916719,"ECCENTRICITY":0.00029183,"INCLINATION":97.3778,"RA_OF_ASC_NODE":152.1823,"ARG_OF_PERICENTER":251.8087,"MEAN_ANOMALY":108.2841,"EPHEMERIS_TYPE":0,"CLASSIFICATION_TYPE":"U","NORAD_CAT_ID":60486,"ELEMENT_SET_NO":999,"REV_AT_EPOCH":8703,"BSTAR":0.00059802545,"MEAN_MOTION_DOT":0.00023179,"MEAN_MOTION_DDOT":0},{"OBJECT_NAME":"FLOCK 4BE-13","OBJECT_ID":"2024-149AW","EPOCH":"2026-03-09T16:57:04.372704","MEAN_MOTION":15.38835504,"ECCENTRICITY":0.0003445,"INCLINATION":97.3753,"RA_OF_ASC_NODE":152.2878,"ARG_OF_PERICENTER":264.4155,"MEAN_ANOMALY":95.6697,"EPHEMERIS_TYPE":0,"CLASSIFICATION_TYPE":"U","NORAD_CAT_ID":60512,"ELEMENT_SET_NO":999,"REV_AT_EPOCH":8705,"BSTAR":0.00053907818,"MEAN_MOTION_DOT":0.00020656,"MEAN_MOTION_DDOT":0}]
